JILIN GAOFEN OBJECT F   
1 68696U 26080F   26186.28461741  .00008317  00000+0  52648-3 0  9993
2 68696  97.6605 261.8543 0014486  17.5776 342.5951 15.09154592 12356
JILIN GAOFEN OBJECT G   
1 68697U 26080G   26186.33693207  .00007796  00000+0  49401-3 0  9997
2 68697  97.6652 261.9853 0014382  11.6218 348.5339 15.09140755 12368
JILIN GAOFEN OBJECT H   
1 68698U 26080H   26182.82007068  .00007709  00000+0  48996-3 0  9994
2 68698  97.6647 258.4665 0015405  23.9908 336.2035 15.09020248 11836
