{"fetched_at":"2026-07-05T12:48:02.422Z","source":"https://celestrak.org/NORAD/elements/gp.php?NAME=JILIN&FORMAT=JSON","constellation":"jilin-1","records":[{"OBJECT_NAME":"JILIN GAOFEN OBJECT F","OBJECT_ID":"2026-080F","EPOCH":"2026-07-05T06:49:50.944224","CLASSIFICATION_TYPE":"U","MEAN_MOTION":15.09154592,"ECCENTRICITY":0.00144861,"INCLINATION":97.6605,"RA_OF_ASC_NODE":261.8543,"ARG_OF_PERICENTER":17.5776,"MEAN_ANOMALY":342.5951,"EPHEMERIS_TYPE":0,"NORAD_CAT_ID":68696,"ELEMENT_SET_NO":999,"REV_AT_EPOCH":1235,"BSTAR":0.00052647874,"MEAN_MOTION_DOT":0.00008317,"MEAN_MOTION_DDOT":0},{"OBJECT_NAME":"JILIN GAOFEN OBJECT G","OBJECT_ID":"2026-080G","EPOCH":"2026-07-05T08:05:10.930848","CLASSIFICATION_TYPE":"U","MEAN_MOTION":15.09140755,"ECCENTRICITY":0.00143821,"INCLINATION":97.6652,"RA_OF_ASC_NODE":261.9853,"ARG_OF_PERICENTER":11.6218,"MEAN_ANOMALY":348.5339,"EPHEMERIS_TYPE":0,"NORAD_CAT_ID":68697,"ELEMENT_SET_NO":999,"REV_AT_EPOCH":1236,"BSTAR":0.00049400648,"MEAN_MOTION_DOT":0.00007796,"MEAN_MOTION_DDOT":0},{"OBJECT_NAME":"JILIN GAOFEN OBJECT H","OBJECT_ID":"2026-080H","EPOCH":"2026-07-01T19:40:54.106752","CLASSIFICATION_TYPE":"U","MEAN_MOTION":15.09020248,"ECCENTRICITY":0.00154058,"INCLINATION":97.6647,"RA_OF_ASC_NODE":258.4665,"ARG_OF_PERICENTER":23.9908,"MEAN_ANOMALY":336.2035,"EPHEMERIS_TYPE":0,"NORAD_CAT_ID":68698,"ELEMENT_SET_NO":999,"REV_AT_EPOCH":1183,"BSTAR":0.00048995825,"MEAN_MOTION_DOT":0.00007709,"MEAN_MOTION_DDOT":0}]}
